STARLETTE               
1 07646U 75010A   22198.54547641 -.00000142  00000+0  17916-5 0  9990
2 07646  49.8252 351.4386 0205800  16.9826 343.7825 13.82312814396645
LAGEOS 1                
1 08820U 76039A   22198.35156584  .00000007  00000+0  00000+0 0  9997
2 08820 109.8540  49.2361 0045089 248.3732 227.5721  6.38664883821769
AJISAI (EGS)            
1 16908U 86061A   22198.55890522 -.00000099  00000+0 -77620-5 0  9999
2 16908  50.0066 226.4701 0011348 139.1336  27.3133 12.44497054302248
COSMOS 1989 (ETALON 1)  
1 19751U 89001C   22198.54933574  .00000007  00000+0  00000+0 0  9998
2 19751  64.3098 121.3516 0023784 213.3688 296.3341  2.13156222260874
COSMOS 2024 (ETALON 2)  
1 20026U 89039C   22198.02463418 -.00000068  00000+0  00000+0 0  9992
2 20026  65.5389 359.3815 0018439 218.4807 163.3296  2.13204267257996
LAGEOS 2                
1 22195U 92070B   22198.30250927 -.00000009  00000+0  00000+0 0  9995
2 22195  52.6587  90.9309 0138219 281.8963 252.4794  6.47293738702781
STELLA                  
1 22824U 93061B   22198.56386147 -.00000041  00000+0  22482-5 0  9997
2 22824  98.9630 220.2416 0007402  71.6495 101.1333 14.27391753500679
LARES                   
1 38077U 12006A   22198.55596683 -.00000003  00000+0  21956-3 0  9992
2 38077  69.4893 215.8846 0010735 300.8617  59.1341 12.54931742477684
